241P/LINEAR,e,21.1063,305.4832,111.3373,4.924961,0.0901779,0.61041714,330.4583,09/01.0/2020,2000,g 13.5,4.0
# From MPC 81861
242P/Spahr,e,32.4823,180.4675,246.1974,5.478343,0.0768653,0.27795325,238.0632,09/01.0/2020,2000,g  8.0,4.0
# From MPC111774
243P/NEAT,e,7.6411,87.6536,283.5215,3.831490,0.1314173,0.35983447,96.8371,09/01.0/2020,2000,g 12.5,4.0
# From MPC 88331
244P/Scotti,e,2.2592,353.9901,92.8781,4.895407,0.0909957,0.19845186,286.6568,09/01.0/2020,2000,g  9.0,4.0
# From MPEC 2020-K19
245P/WISE,e,21.1973,316.6495,316.8302,4.042912,0.1212447,0.45755969,113.3859,09/01.0/2020,2000,g 14.0,4.0
# From MPEC 2020-K19
246P/NEAT,e,15.9874,78.7472,176.2787,4.015460,0.1224901,0.28675733,338.5969,09/01.0/2020,2000,g 10.5,4.0
# From MPC112394
247P/LINEAR,e,13.6551,54.0113,47.4870,3.970225,0.1245895,0.62444417,79.6299,09/01.0/2020,2000,g 16.5,2.0
# From MPC 75730
248P/Gibbs,e,6.3470,207.7524,209.9033,5.990942,0.0672143,0.63793378,236.1608,09/01.0/2020,2000,g 14.0,4.0
# From MPEC 2020-K19
249P/LINEAR,e,8.3968,239.1763,65.6060,2.761933,0.2147258,0.82014054,13.6357,09/01.0/2020,2000,g 15.5,4.0
# From MPC110497
250P/Larson,e,13.2249,73.6385,45.9715,3.754834,0.1354621,0.40355938,127.6412,09/01.0/2020,2000,g 14.5,4.0
# From MPC104795
251P/LINEAR,e,23.4032,219.3979,31.2671,3.509990,0.1498805,0.50544257,171.2352,09/01.0/2020,2000,g 16.5,2.0
# From MPC102956
252P/LINEAR,e,10.4101,190.9518,343.3115,3.049646,0.1850674,0.67199471,302.0839,09/01.0/2020,2000,g 17.5,4.0
# From MPC112394
253P/PANSTARRS,e,4.9427,146.8773,230.6403,3.467746,0.1526276,0.41348858,129.2961,09/01.0/2020,2000,g 14.5,4.0
# From MPEC 2020-K19
254P/McNaught,e,32.5721,129.1740,219.4776,4.614374,0.0994340,0.32017333,357.1519,09/01.0/2020,2000,g 11.0,4.0
# From NK 2214
255P/Levy,e,14.0330,276.7523,185.1917,2.933757,0.1961407,0.71976768,216.5547,09/01.0/2020,2000,g  9.0,4.0
# From MPC 84027
256P/LINEAR,e,27.6346,81.3511,124.3004,4.636407,0.0987261,0.41833313,268.9416,09/01.0/2020,2000,g 14.0,2.0
# From MPEC 2020-N31
257P/Catalina,e,20.2215,207.7400,117.6472,3.763732,0.1349820,0.43076188,358.6850,09/01.0/2020,2000,g 11.5,4.0
# From MPC 79655
258P/PANSTARRS,e,6.7460,126.2482,26.0987,4.401307,0.1067411,0.20898022,7.8452,09/01.0/2020,2000,g 13.0,4.0
# From MPC106349
259P/Garradd,e,15.8884,51.4591,257.5834,2.730819,0.2184060,0.33848085,245.2618,09/01.0/2020,2000,g 15.5,4.0
# From MPEC 2020-L06
260P/McNaught,e,15.0534,349.3449,18.4023,3.622395,0.1429586,0.60894814,51.0372,09/01.0/2020,2000,g 13.5,4.0
# From MPEC 2019-TG9
261P/Larson,e,6.0761,291.1620,67.1325,3.489679,0.1511910,0.42306176,66.5594,09/01.0/2020,2000,g 14.0,4.0
# From MPC 82322
262P/McNaught-Russell,e,29.1767,217.9024,171.0005,6.876242,0.0546610,0.81517519,154.7952,09/01.0/2020,2000,g 13.5,4.0
# From MPC 89018
263P/Gibbs,e,11.5493,105.8128,34.4258,3.054191,0.1846545,0.59010058,196.8661,09/01.0/2020,2000,g  9.0,4.0
# From MPC114608
264P/Larsen,e,25.1320,220.8344,346.7081,3.898356,0.1280507,0.37459651,50.3127,09/01.0/2020,2000,g 13.0,4.0
# From MPC 79870
265P/LINEAR,e,14.3629,342.9322,33.4145,4.254167,0.1123265,0.64765727,341.9126,09/01.0/2020,2000,g 14.5,4.0
# From MPEC 2019-TG9
266P/Christensen,e,3.4259,4.9995,97.8433,3.535290,0.1482745,0.33946833,19.9445,09/01.0/2020,2000,g 12.5,4.0
# From MPC114608
267P/LONEOS,e,6.1377,228.6566,114.0983,3.212114,0.1712055,0.61406797,132.0679,09/01.0/2020,2000,g 19.5,4.0
# From MPC 92277
268P/Bernardi,e,16.1435,127.5856,0.0501,4.549976,0.1015524,0.47161455,198.5711,09/01.0/2020,2000,g 14.0,4.0
# From MPC104795
269P/Jedicke,e,7.0704,241.7032,225.9574,7.080287,0.0523152,0.43044167,113.1223,09/01.0/2020,2000,g 10.0,4.0
# From MPC 88332
270P/Gehrels,e,2.9178,222.9649,209.8997,6.668726,0.0572321,0.46697257,151.2684,09/01.0/2020,2000,g  8.0,4.0
# From MPC 92277
271P/van Houten-Lemmon,e,6.8667,9.2989,36.4535,7.047655,0.0526790,0.39346902,137.4853,09/01.0/2020,2000,g 11.0,4.0
# From MPC 81862
272P/NEAT,e,18.0762,109.4646,27.9798,4.454698,0.1048278,0.45416079,288.2567,09/01.0/2020,2000,g 16.0,2.0
# From MPC 82723
273P/Pons-Gambart,e,136.7718,320.4006,20.3082,31.73529,0.0055130,0.97405096,0.0000,12/17.2333/2012,2000,g 11.5,4.0
# From MPC 88332
274P/Tombaugh-Tenagra,e,15.8177,81.3371,38.5076,4.371221,0.1078450,0.43877449,296.9440,09/01.0/2020,2000,g 13.0,4.0
# From MPC 81862
275P/Hermann,e,21.2804,348.7574,174.0984,5.771598,0.0710821,0.71249040,199.7087,09/01.0/2020,2000,g 17.0,4.0
# From MPEC 2020-K19
276P/Vorobjov,e,14.8176,211.4384,199.9019,5.312906,0.0804833,0.26726821,233.7612,09/01.0/2020,2000,g 11.5,4.0
# From MPC105243
277P/LINEAR,e,16.7790,276.3445,152.3218,3.851689,0.1303849,0.50553634,344.3263,09/01.0/2020,2000,g 14.0,4.0
# From MPEC 2020-K19
278P/McNaught,e,6.6851,15.4486,238.0857,3.693453,0.1388530,0.43493816,358.4637,09/01.0/2020,2000,g 14.0,4.0
# From MPC100285
279P/La Sagra,e,5.0518,346.2277,5.7611,3.575340,0.1457901,0.39814467,219.9296,09/01.0/2020,2000,g 14.0,4.0
# From MPC 89013
280P/Larsen,e,11.7749,131.3941,104.8050,4.528956,0.1022603,0.41795597,250.8591,09/01.0/2020,2000,g 12.5,4.0
# From MPC 83145
281P/MOSS,e,4.7197,87.1725,26.8495,4.869814,0.0917140,0.17158877,278.8051,09/01.0/2020,2000,g 11.0,4.0
# From MPC xxxxx
282P/,e,5.8103,9.2965,217.5500,4.244277,0.1127193,0.18921285,312.8714,09/01.0/2020,2000,g 13.5,2.0
# From MPEC 2013-M31
283P/Spacewatch,e,14.4539,161.1341,22.2692,4.139419,0.1170294,0.48500682,316.4590,09/01.0/2020,2000,g  9.0,4.0
# From MPEC 2020-K19
284P/McNaught,e,11.8586,144.2754,202.6285,3.676082,0.1398384,0.37593742,307.2434,09/01.0/2020,2000,g 13.0,4.0
# From MPC 85339
285P/LINEAR,e,25.0304,185.4902,178.4063,4.508821,0.1029460,0.61812883,271.0907,09/01.0/2020,2000,g 15.0,4.0
# From MPC 90771
286P/Christensen,e,17.0449,283.9643,24.7763,4.110673,0.1182591,0.42528133,286.8555,09/01.0/2020,2000,g 14.0,4.0
# From MPC 96868
287P/Christensen,e,16.3193,139.0422,188.8516,4.167303,0.1158568,0.27066053,239.9612,09/01.0/2020,2000,g 13.5,4.0
# From MPC xxxxx
288P/,e,3.2402,83.1881,280.7262,3.047565,0.1852570,0.20138559,258.3556,09/01.0/2020,2000,g 16.0,2.0
# From MPC118844
289P/Blanpain,e,5.8940,68.8883,9.8819,3.047770,0.1852383,0.68540589,47.2379,09/01.0/2020,2000,g  2.5,4.0
# From MPC 95214
290P/Jager,e,20.2273,302.6901,181.8857,6.171517,0.0642860,0.63923530,152.6965,09/01.0/2020,2000,g 10.5,4.0
# From MPC 89314
291P/NEAT,e,6.3240,238.1871,173.9713,4.512743,0.1028119,0.43625756,259.4998,09/01.0/2020,2000,g 13.0,4.0
# From MPC115887
292P/Li,e,24.2539,90.9974,319.4613,6.109621,0.0652654,0.58775651,157.0391,09/01.0/2020,2000,g 12.5,4.0
# From MPC 92278
293P/Spacewatch,e,9.0568,78.4121,41.0706,3.643881,0.1416961,0.41825365,344.5112,09/01.0/2020,2000,g 14.5,4.0
# From MPEC 2020-K19
294P/LINEAR,e,18.2205,312.5904,235.5485,3.206994,0.1716156,0.59458288,47.4002,09/01.0/2020,2000,g 15.5,4.0
# From MPC 93589
295P/LINEAR,e,21.0731,7.4172,72.9454,5.306544,0.0806281,0.61600115,186.2550,09/01.0/2020,2000,g 12.0,4.0
# From MPEC 2020-K19
296P/Garradd,e,25.2350,263.6406,350.1263,3.496899,0.1507230,0.47855923,357.4490,09/01.0/2020,2000,g 14.0,4.0
# From MPC102956
297P/Beshore,e,10.3286,97.6603,132.4861,3.442388,0.1543172,0.31923784,337.8061,09/01.0/2020,2000,g 15.0,4.0
# From MPC114609
298P/Christensen,e,7.8701,52.8253,100.6914,3.593087,0.1447113,0.38683069,359.2219,09/01.0/2020,2000,g 15.0,4.0
# From MPC101100
299P/Catalina-PANSTARRS,e,10.4771,271.6243,323.9074,4.384016,0.1073732,0.28187975,216.4040,09/01.0/2020,2000,g 11.5,4.0
# From MPC114609
300P/Catalina,e,5.6762,95.6681,222.8698,2.700060,0.2221489,0.69172954,148.5622,09/01.0/2020,2000,g 16.0,4.0
# From MPC 89014
301P/LINEAR-NEAT,e,10.3434,351.1785,193.7255,5.738011,0.0717071,0.58559717,157.3350,09/01.0/2020,2000,g 13.0,4.0
# From MPEC 2020-HN5
302P/Lemmon-PANSTARRS,e,6.0342,121.7550,208.1863,4.277210,0.1114200,0.22989457,176.3822,09/01.0/2020,2000,g 12.5,4.0
# From MPC 92278
303P/NEAT,e,7.0186,347.9700,356.8579,5.049004,0.0868751,0.51023887,186.5280,09/01.0/2020,2000,g 13.5,4.0
# From MPEC 2020-N08
304P/Ory,e,2.6068,58.9366,335.2265,3.149919,0.1763011,0.60042315,3.4551,09/01.0/2020,2000,g 16.5,4.0
# From MPC101100
305P/Skiff,e,11.6428,240.1301,147.2681,4.644907,0.0984552,0.69287546,208.4578,09/01.0/2020,2000,g 18.0,4.0
# From MPC 92278
306P/LINEAR,e,8.3104,341.3800,0.8161,3.122164,0.1786572,0.59324672,39.6840,09/01.0/2020,2000,g 19.0,4.0
# From MPC 92278
307P/LINEAR,e,4.4323,158.1349,222.1524,5.794538,0.0706604,0.67419536,147.1147,09/01.0/2020,2000,g 15.0,4.0
# From MPC109148
308P/Lagerkvist-Carsenty,e,4.8497,63.1039,333.6132,6.607010,0.0580359,0.36285075,112.9231,09/01.0/2020,2000,g 13.0,2.0
# From MPC 94284
309P/LINEAR,e,17.0235,10.1422,49.9834,4.370975,0.1078541,0.61756820,219.1107,09/01.0/2020,2000,g 15.0,4.0
# From MPC 98566
310P/Hill,e,13.1282,8.9272,31.8642,4.177617,0.1154280,0.42172509,227.3467,09/01.0/2020,2000,g 13.5,4.0
# From MPC109593
311P/PANSTARRS,e,4.9700,279.2271,144.5814,2.188573,0.3044125,0.11536580,348.9107,09/01.0/2020,2000,g 17.0,4.0
# From MPEC 2020-K19
312P/NEAT,e,19.7680,144.6696,207.5269,3.466750,0.1526934,0.42792214,356.3377,09/01.0/2020,2000,g 16.0,4.0
# From MPEC 2020-K19
313P/Gibbs,e,10.9833,105.9720,254.6285,3.161444,0.1753379,0.23485894,24.3290,09/01.0/2020,2000,g 15.0,4.0
# From MPC105243
314P/Montani,e,3.9792,267.6190,214.2073,7.274359,0.0502356,0.41617959,71.4932,09/01.0/2020,2000,g  9.5,4.0
# From MPC115888
315P/LONEOS,e,17.8058,69.0892,65.6402,4.939877,0.0897697,0.52230761,122.9115,09/01.0/2020,2000,g 11.0,4.0
# From MPC 92279
316P/LONEOS-Christensen,e,9.8719,246.7400,193.7566,4.351323,0.1085856,0.15958828,192.6547,09/01.0/2020,2000,g 13.5,4.0
# From MPEC 2020-C98
317P/WISE,e,11.9510,275.5194,334.9108,2.964982,0.1930505,0.57040162,355.1377,09/01.0/2020,2000,g 17.5,4.0
# From MPC102103
318P/McNaught-Hartley,e,17.8735,35.6335,313.1207,7.496767,0.0480168,0.67499148,85.1875,09/01.0/2020,2000,g  8.5,6.0
# From MPC 97499
319P/Catalina-McNaught,e,15.0955,111.3800,203.6226,3.568607,0.1462029,0.66654068,275.7250,09/01.0/2020,2000,g 15.0,4.0
# From MPC 96281
